{
    "links": {
        "self": "http://www.neowsapp.com/rest/v1/neo/3840840?api_key=iIulBulltgU6a56xZRHN4H3l9WmuAYTsLGpBGhQ2"
    },
    "id": "3840840",
    "neo_reference_id": "3840840",
    "name": "(2019 GE3)",
    "designation": "2019 GE3",
    "nasa_jpl_url": "http://ssd.jpl.nasa.gov/sbdb.cgi?sstr=3840840",
    "absolute_magnitude_h": 27.0,
    "estimated_diameter": {
        "kilometers": {
            "estimated_diameter_min": 0.0105816886,
            "estimated_diameter_max": 0.023661375
        },
        "meters": {
            "estimated_diameter_min": 10.5816885933,
            "estimated_diameter_max": 23.6613750114
        },
        "miles": {
            "estimated_diameter_min": 0.0065751544,
            "estimated_diameter_max": 0.0147024923
        },
        "feet": {
            "estimated_diameter_min": 34.7168272045,
            "estimated_diameter_max": 77.6291855923
        }
    },
    "is_potentially_hazardous_asteroid": false,
    "close_approach_data": [
        {
            "close_approach_date": "2019-04-02",
            "close_approach_date_full": "2019-Apr-02 11:21",
            "epoch_date_close_approach": 1554204060000,
            "relative_velocity": {
                "kilometers_per_second": "8.5023022968",
                "kilometers_per_hour": "30608.2882685741",
                "miles_per_hour": "19018.8000077704"
            },
            "miss_distance": {
                "astronomical": "0.0190393859",
                "lunar": "7.4063211151",
                "kilometers": "2848251.576748033",
                "miles": "1769821.4620795354"
            },
            "orbiting_body": "Earth"
        }
    ],
    "orbital_data": {
        "orbit_id": "1",
        "orbit_determination_date": "2019-04-08 11:12:05",
        "first_observation_date": "2019-04-04",
        "last_observation_date": "2019-04-08",
        "data_arc_in_days": 4,
        "observations_used": 57,
        "orbit_uncertainty": "7",
        "minimum_orbit_intersection": ".0133706",
        "jupiter_tisserand_invariant": "3.861",
        "epoch_osculation": "2459000.5",
        "eccentricity": ".4617574290086752",
        "semi_major_axis": "1.846729370304551",
        "inclination": "9.092973149655853",
        "ascending_node_longitude": "191.8751246880191",
        "orbital_period": "916.6495112986109",
        "perihelion_distance": ".9939883641979119",
        "perihelion_argument": "339.0645874111995",
        "aphelion_distance": "2.69947037641119",
        "perihelion_time": "2458558.636563214383",
        "mean_anomaly": "173.5350701463501",
        "mean_motion": ".3927346227349104",
        "equinox": "J2000",
        "orbit_class": {
            "orbit_class_type": "APO",
            "orbit_class_description": "Near-Earth asteroid orbits which cross the Earth’s orbit similar to that of 1862 Apollo",
            "orbit_class_range": "a (semi-major axis) > 1.0 AU; q (perihelion) < 1.017 AU"
        }
    },
    "is_sentry_object": false
}